{
  "type": "FeatureCollection",
  "features": [
    {
      "type": "Feature",
      "properties": {
        "norad_id": 60182,
        "name": "ALOS-4 (DAICHI-4)",
        "group": "resource",
        "lat": -58.878353395724005,
        "lon": -97.88012753328144,
        "alt_km": 638.8566006072733,
        "timestamp": "2025-12-26T19:22:38.552040+00:00",
        "meta_object_name": "ALOS-4 (DAICHI-4)",
        "meta_object_id": "2024-123A",
        "meta_epoch": "2025-12-26T13:25:39.163584",
        "meta_mean_motion": 14.79476567,
        "meta_eccentricity": 0.00014142,
        "meta_inclination": 97.9216,
        "meta_ra_of_asc_node": 95.2093,
        "meta_arg_of_pericenter": 100.9646,
        "meta_mean_anomaly": 259.1724,
        "meta_ephemeris_type": 0,
        "meta_classification_type": "U",
        "meta_norad_cat_id": 60182,
        "meta_element_set_no": 999,
        "meta_rev_at_epoch": 8035,
        "meta_bstar": 0.00030193189,
        "meta_mean_motion_dot": 2.204e-05,
        "meta_mean_motion_ddot": 0,
        "tle_line1": "1 60182U 24123A   25360.55948106  .00002204  00000+0  30193-3 0  9999",
        "tle_line2": "2 60182  97.9216  95.2093 0001414 100.9646 259.1724 14.79476567 80359"
      },
      "geometry": {
        "type": "Point",
        "coordinates": [
          -97.88012753328144,
          -58.878353395724005
        ]
      }
    },
    {
      "type": "Feature",
      "properties": {
        "norad_id": 60452,
        "name": "LEGION 3",
        "group": "resource",
        "lat": 43.727574849295905,
        "lon": -52.114880125009,
        "alt_km": 522.015587090079,
        "timestamp": "2025-12-26T19:22:38.552050+00:00",
        "meta_object_name": "LEGION 3",
        "meta_object_id": "2024-146A",
        "meta_epoch": "2025-12-26T09:32:43.213632",
        "meta_mean_motion": 15.15898976,
        "meta_eccentricity": 0.00157688,
        "meta_inclination": 45.0003,
        "meta_ra_of_asc_node": 236.9073,
        "meta_arg_of_pericenter": 271.187,
        "meta_mean_anomaly": 88.7202,
        "meta_ephemeris_type": 0,
        "meta_classification_type": "U",
        "meta_norad_cat_id": 60452,
        "meta_element_set_no": 999,
        "meta_rev_at_epoch": 7580,
        "meta_bstar": 0.00028665806,
        "meta_mean_motion_dot": 5.337e-05,
        "meta_mean_motion_ddot": 0,
        "tle_line1": "1 60452U 24146A   25360.39772238  .00005337  00000+0  28666-3 0  9999",
        "tle_line2": "2 60452  45.0003 236.9073 0015768 271.1870  88.7202 15.15898976 75800"
      },
      "geometry": {
        "type": "Point",
        "coordinates": [
          -52.114880125009,
          43.727574849295905
        ]
      }
    },
    {
      "type": "Feature",
      "properties": {
        "norad_id": 60453,
        "name": "LEGION 4",
        "group": "resource",
        "lat": 43.75444753298391,
        "lon": 39.595224388368216,
        "alt_km": 507.6534412851979,
        "timestamp": "2025-12-26T19:22:38.552061+00:00",
        "meta_object_name": "LEGION 4",
        "meta_object_id": "2024-146B",
        "meta_epoch": "2025-12-26T09:32:49.532064",
        "meta_mean_motion": 15.15973497,
        "meta_eccentricity": 0.00079182,
        "meta_inclination": 45.0397,
        "meta_ra_of_asc_node": 328.6982,
        "meta_arg_of_pericenter": 27.6743,
        "meta_mean_anomaly": 332.4556,
        "meta_ephemeris_type": 0,
        "meta_classification_type": "U",
        "meta_norad_cat_id": 60453,
        "meta_element_set_no": 999,
        "meta_rev_at_epoch": 7465,
        "meta_bstar": 0.0003360336,
        "meta_mean_motion_dot": 6.303e-05,
        "meta_mean_motion_ddot": 0,
        "tle_line1": "1 60453U 24146B   25360.39779551  .00006303  00000+0  33603-3 0  9996",
        "tle_line2": "2 60453  45.0397 328.6982 0007918  27.6743 332.4556 15.15973497 74651"
      },
      "geometry": {
        "type": "Point",
        "coordinates": [
          39.595224388368216,
          43.75444753298391
        ]
      }
    },
    {
      "type": "Feature",
      "properties": {
        "norad_id": 60989,
        "name": "SENTINEL-2C",
        "group": "resource",
        "lat": 62.51303122857453,
        "lon": 56.24471617587939,
        "alt_km": 782.0874370628708,
        "timestamp": "2025-12-26T19:22:38.552071+00:00",
        "meta_object_name": "SENTINEL-2C",
        "meta_object_id": "2024-157A",
        "meta_epoch": "2025-12-26T03:58:31.725408",
        "meta_mean_motion": 14.30818046,
        "meta_eccentricity": 0.00013866,
        "meta_inclination": 98.5666,
        "meta_ra_of_asc_node": 72.4538,
        "meta_arg_of_pericenter": 102.8528,
        "meta_mean_anomaly": 257.2809,
        "meta_ephemeris_type": 0,
        "meta_classification_type": "U",
        "meta_norad_cat_id": 60989,
        "meta_element_set_no": 999,
        "meta_rev_at_epoch": 6824,
        "meta_bstar": 0.0001005445,
        "meta_mean_motion_dot": 2.2e-06,
        "meta_mean_motion_ddot": 0,
        "tle_line1": "1 60989U 24157A   25360.16564497  .00000220  00000+0  10054-3 0  9995",
        "tle_line2": "2 60989  98.5666  72.4538 0001386 102.8528 257.2809 14.30818046 68245"
      },
      "geometry": {
        "type": "Point",
        "coordinates": [
          56.24471617587939,
          62.51303122857453
        ]
      }
    },
    {
      "type": "Feature",
      "properties": {
        "norad_id": 61735,
        "name": "IONOSFERA-M 1",
        "group": "resource",
        "lat": -76.30671773153992,
        "lon": -90.30421447829441,
        "alt_km": 823.4536182977326,
        "timestamp": "2025-12-26T19:22:38.552084+00:00",
        "meta_object_name": "IONOSFERA-M 1",
        "meta_object_id": "2024-199A",
        "meta_epoch": "2025-12-26T14:41:11.668704",
        "meta_mean_motion": 14.22717094,
        "meta_eccentricity": 2.727e-05,
        "meta_inclination": 98.7395,
        "meta_ra_of_asc_node": 230.353,
        "meta_arg_of_pericenter": 2.6166,
        "meta_mean_anomaly": 357.5013,
        "meta_ephemeris_type": 0,
        "meta_classification_type": "U",
        "meta_norad_cat_id": 61735,
        "meta_element_set_no": 999,
        "meta_rev_at_epoch": 10316,
        "meta_bstar": 4.6092596e-05,
        "meta_mean_motion_dot": 5.9e-07,
        "meta_mean_motion_ddot": 0,
        "tle_line1": "1 61735U 24199A   25360.61194061  .00000059  00000+0  46093-4 0  9990",
        "tle_line2": "2 61735  98.7395 230.3530 0000272   2.6166 357.5013 14.22717094103165"
      },
      "geometry": {
        "type": "Point",
        "coordinates": [
          -90.30421447829441,
          -76.30671773153992
        ]
      }
    },
    {
      "type": "Feature",
      "properties": {
        "norad_id": 61736,
        "name": "IONOSFERA-M 2",
        "group": "resource",
        "lat": 74.03683968216211,
        "lon": 82.98987704541037,
        "alt_km": 807.7491869517844,
        "timestamp": "2025-12-26T19:22:38.552094+00:00",
        "meta_object_name": "IONOSFERA-M 2",
        "meta_object_id": "2024-199B",
        "meta_epoch": "2025-12-26T15:31:03.401760",
        "meta_mean_motion": 14.22719263,
        "meta_eccentricity": 0.00018726,
        "meta_inclination": 98.7394,
        "meta_ra_of_asc_node": 230.2997,
        "meta_arg_of_pericenter": 92.6122,
        "meta_mean_anomaly": 267.527,
        "meta_ephemeris_type": 0,
        "meta_classification_type": "U",
        "meta_norad_cat_id": 61736,
        "meta_element_set_no": 999,
        "meta_rev_at_epoch": 10629,
        "meta_bstar": 4.8670408e-05,
        "meta_mean_motion_dot": 6.5e-07,
        "meta_mean_motion_ddot": 0,
        "tle_line1": "1 61736U 24199B   25360.64656715  .00000065  00000+0  48670-4 0  9993",
        "tle_line2": "2 61736  98.7394 230.2997 0001872  92.6122 267.5270 14.22719263106291"
      },
      "geometry": {
        "type": "Point",
        "coordinates": [
          82.98987704541037,
          74.03683968216211
        ]
      }
    },
    {
      "type": "Feature",
      "properties": {
        "norad_id": 63772,
        "name": "BIOMASS",
        "group": "resource",
        "lat": 40.95857403458967,
        "lon": 178.5377937461244,
        "alt_km": 665.1218512015084,
        "timestamp": "2025-12-26T19:22:38.552105+00:00",
        "meta_object_name": "BIOMASS",
        "meta_object_id": "2025-090A",
        "meta_epoch": "2025-12-26T12:38:37.094208",
        "meta_mean_motion": 14.67541844,
        "meta_eccentricity": 0.00010805,
        "meta_inclination": 98.0698,
        "meta_ra_of_asc_node": 185.3355,
        "meta_arg_of_pericenter": 85.3818,
        "meta_mean_anomaly": 274.751,
        "meta_ephemeris_type": 0,
        "meta_classification_type": "U",
        "meta_norad_cat_id": 63772,
        "meta_element_set_no": 999,
        "meta_rev_at_epoch": 3536,
        "meta_bstar": 0.00022693578,
        "meta_mean_motion_dot": 1.239e-05,
        "meta_mean_motion_ddot": 0,
        "tle_line1": "1 63772U 25090A   25360.52681822  .00001239  00000+0  22694-3 0  9991",
        "tle_line2": "2 63772  98.0698 185.3355 0001080  85.3818 274.7510 14.67541844 35366"
      },
      "geometry": {
        "type": "Point",
        "coordinates": [
          178.5377937461244,
          40.95857403458967
        ]
      }
    }
  ]
}